METHANESAT              
1 59101U 24043D   25163.83372635  .00002914  00000+0  26917-3 0  9996
2 59101  97.8009 289.9221 0011697 155.9413 204.2356 14.95346116 69407
